# Made by eph2tle, compiled Jun  3 2025 21:11:50
# Run at Wed Jun  4 18:30:48 2025 UTC
#
#    The following TLEs (Two-Line Elements) were generated by fitting
# a numerically-integrated ephemeris,  based on the orbit given below,
# to the SDP4/SGP4 models.  Each TLE is good for the interval between
# its epoch and the epoch of the subsequent TLE (usually one day).
# The maximum deviation between the numerically integrated ephemerides
# and the TLE-based ephemeris, in kilometers,  is given for each TLE
# as the "worst residual".
#
#    This fitting is done using the 'eph2tle' code packaged with Find_Orb.
# The code has details on how the TLEs were computed :
#
#    https://github.com/Bill-Gray/find_orb/eph2tle.cpp
#
#    Be warned:  the error given is that between the numerically
# integrated ephems and the TLE model.  There will usually be at
# least some additional difference between the ephems and the actual
# motion of the satellite,  especially if the ephemerides are based
# on a short arc.  If the following orbital elements say something
# like "[based on] 10 observations 2015 Jan. 1-13",  and the TLEs
# are for 2015 May,  the extrapolation may be tenuous at best.  If
# your application requires a specific level of accuracy,  you may
# want to contact me;  I can give you some idea as to the fit of the
# underlying data (and possibly TLEs based on newer data).
#
#   You can usually find the underlying observational data,  and the
# fitted orbit,  residuals,  ephemerides,  and sometimes some comments
# about the object,  among the pages listed at
#
#    https://www.projectpluto.com/pluto/mpecs/pseudo.htm
#
#    Also,  if you use a TLE outside the "correct" time range (between
# its MJD and that of the next TLE),  all bets are off.  I've carefully
# computed and minimized the worst error over the "correct" time frame,
# but the ephemeris may (or may not) diverge wildly outside of it.
#
# Ephem range: 60777.000000 60902.000000 1.000000
# Created Wed Jun  4 14:30:25 2025
# Ephemeris start: 12 Apr 2025  0:00:00
# Ephemeris end:   15 Aug 2025  0:00:00
# Times are all TDT
# Positions/velocities are in equatorial J2000
# Orbital elements:  2024-051C = NORAD 59278 = Tiandu-1
#    Perigee 2025 May 22.611511 +/- 2.2469e-5 TT = 14:40:34.5 (JD 2460818.111511)
# dx: 23.83 +/- 0.050861   dy: 15.082 +/- 0.33452   dz: -4.3329 +/- 0.16006 m/s
# T0: 2025 May 22.577 +/- 0.004064
# Epoch 2025 May 24.0 TT = JDT 2460819.5                           Find_Orb
# M  54.926075185 +/- 0.00627         (J2000 equator)
# n  39.558158231 +/- 0.0046348       Peri.  114.219238 +/- 0.003319
# a184125.0158 +/- 14.382             Node     4.496315 +/- 0.0003099
# e   0.69332961 +/- 1.1345e-5        Incl.   14.603982 +/- 3.782e-5
# P   9.1004d                H 30.36  G  0.15   U  9.1
# q 56465.68915 +/- 3.4873    Q 311784.3426 +/- 25.723
# From 67 observations 2025 Apr. 28-May 24; mean residual 0".414/0.56 sigmas
#
# 1 NoradU COSPAR   Epoch.epoch     dn/dt/2  d2n/dt2/6 BSTAR    T El# C
# 2 NoradU Inclina RAAscNode Eccent  ArgPeri MeanAno  MeanMotion Rev# C

# Worst residual: 1007.94 km
# MJD 60777.000000 (2025 Apr 12  0:00)
2024-051C = NORAD 59278 = Tiandu-1
1 59278U 24051C   25102.49919926  .00000000  00000-0  00000-0 0 27127
2 59278 038.9173 336.3761 1555616 177.4840 042.0016 00.03117116    06

# Worst residual: 844.80 km
# MJD 60778.000000 (2025 Apr 13  0:00)
2024-051C = NORAD 59278 = Tiandu-1
1 59278U 24051C   25103.49919926  .00000000  00000-0  00000-0 0 27128
2 59278 038.5840 335.5610 1234907 162.5858 070.3660 00.03451420    06

# Worst residual: 106.87 km
# MJD 60779.000000 (2025 Apr 14  0:00)
2024-051C = NORAD 59278 = Tiandu-1
1 59278U 24051C   25104.49919926  .00000000  00000-0  00000-0 0 27129
2 59278 038.4732 334.8237 1186539 182.4524 064.2041 00.03236075    02

# Worst residual: 87.39 km
# MJD 60780.000000 (2025 Apr 15  0:00)
2024-051C = NORAD 59278 = Tiandu-1
1 59278U 24051C   25105.49919926  .00000000  00000-0  00000-0 0 27120
2 59278 038.3671 333.7299 1109504 156.9031 104.1371 00.03555253    07

# Worst residual: 103.94 km
# MJD 60781.000000 (2025 Apr 16  0:00)
2024-051C = NORAD 59278 = Tiandu-1
1 59278U 24051C   25106.49919926  .00000000  00000-0  00000-0 0 27121
2 59278 038.4367 332.4758 1328110 138.2619 138.2560 00.03813210    05

# Worst residual: 148.98 km
# MJD 60782.000000 (2025 Apr 17  0:00)
2024-051C = NORAD 59278 = Tiandu-1
1 59278U 24051C   25107.49919926  .00000000  00000-0  00000-0 0 27122
2 59278 038.7202 331.0650 1731391 129.0649 164.0104 00.04070033    02

# Worst residual: 221.06 km
# MJD 60783.000000 (2025 Apr 18  0:00)
2024-051C = NORAD 59278 = Tiandu-1
1 59278U 24051C   25108.49919926  .00000000  00000-0  00000-0 0 27123
2 59278 039.2712 329.5398 2340444 126.0844 184.8906 00.04391120    08

# Worst residual: 330.57 km
# MJD 60784.000000 (2025 Apr 19  0:00)
2024-051C = NORAD 59278 = Tiandu-1
1 59278U 24051C   25109.49919926  .00000000  00000-0  00000-0 0 27124
2 59278 040.0358 328.1482 3232118 127.4031 203.3215 00.04849747    08

# Worst residual: 403.95 km
# MJD 60785.000000 (2025 Apr 20  0:00)
2024-051C = NORAD 59278 = Tiandu-1
1 59278U 24051C   25110.49919926  .00000000  00000-0  00000-0 0 27126
2 59278 040.1994 327.7979 4490022 131.6491 221.0109 00.05544361    03

# Worst residual: 564.69 km
# MJD 60786.000000 (2025 Apr 21  0:00)
2024-051C = NORAD 59278 = Tiandu-1
1 59278U 24051C   25111.49919926  .00000000  00000-0  00000-0 0 27127
2 59278 037.0340 330.2449 5755820 135.9793 238.8432 00.06379732    01

# Worst residual: 442.69 km
# MJD 60787.000000 (2025 Apr 22  0:00)
2024-051C = NORAD 59278 = Tiandu-1
1 59278U 24051C   25112.49919926  .00000000  00000-0  00000-0 0 27128
2 59278 030.7166 334.5731 6260105 137.2362 256.7965 00.06940221    00

# Worst residual: 197.23 km
# MJD 60788.000000 (2025 Apr 23  0:00)
2024-051C = NORAD 59278 = Tiandu-1
1 59278U 24051C   25113.49919926  .00000000  00000-0  00000-0 0 27129
2 59278 026.5108 336.8068 6201858 137.6926 276.2167 00.07238937    03

# Worst residual: 158.89 km
# MJD 60789.000000 (2025 Apr 24  0:00)
2024-051C = NORAD 59278 = Tiandu-1
1 59278U 24051C   25114.49919926  .00000000  00000-0  00000-0 0 27120
2 59278 024.9511 337.0256 6052039 139.0281 298.1545 00.07520413    06

# Worst residual: 145.42 km
# MJD 60790.000000 (2025 Apr 25  0:00)
2024-051C = NORAD 59278 = Tiandu-1
1 59278U 24051C   25115.49919926  .00000000  00000-0  00000-0 0 27121
2 59278 024.5629 336.8668 5893998 140.4239 322.6592 00.07865834    05

# Worst residual: 186.40 km
# MJD 60791.000000 (2025 Apr 26  0:00)
2024-051C = NORAD 59278 = Tiandu-1
1 59278U 24051C   25116.49919926  .00000000  00000-0  00000-0 0 27122
2 59278 024.4798 336.8646 5686437 140.1363 350.1231 00.08235833    07

# Worst residual: 183.87 km
# MJD 60792.000000 (2025 Apr 27  0:00)
2024-051C = NORAD 59278 = Tiandu-1
1 59278U 24051C   25117.49919926  .00000000  00000-0  00000-0 0 27123
2 59278 024.4423 336.8939 5736374 138.0271 019.5036 00.08157701    03

# Worst residual: 73.41 km
# MJD 60793.000000 (2025 Apr 28  0:00)
2024-051C = NORAD 59278 = Tiandu-1
1 59278U 24051C   25118.49919926  .00000000  00000-0  00000-0 0 27124
2 59278 024.4271 336.9018 5904206 137.9654 046.5089 00.07894578    04

# Worst residual: 56.36 km
# MJD 60794.000000 (2025 Apr 29  0:00)
2024-051C = NORAD 59278 = Tiandu-1
1 59278U 24051C   25119.49919926  .00000000  00000-0  00000-0 0 27125
2 59278 024.4083 336.9373 5990142 138.5736 072.5713 00.07739383    06

# Worst residual: 38.19 km
# MJD 60795.000000 (2025 Apr 30  0:00)
2024-051C = NORAD 59278 = Tiandu-1
1 59278U 24051C   25120.49919926  .00000000  00000-0  00000-0 0 27127
2 59278 024.3809 337.0144 6026207 139.1019 098.5774 00.07658530    02

# Worst residual: 22.10 km
# MJD 60796.000000 (2025 May  1  0:00)
2024-051C = NORAD 59278 = Tiandu-1
1 59278U 24051C   25121.49919926  .00000000  00000-0  00000-0 0 27128
2 59278 024.3478 337.0813 6035550 139.4942 124.8018 00.07617420    03

# Worst residual: 10.64 km
# MJD 60797.000000 (2025 May  2  0:00)
2024-051C = NORAD 59278 = Tiandu-1
1 59278U 24051C   25122.49919926  .00000000  00000-0  00000-0 0 27129
2 59278 024.3285 337.0872 6032489 139.7698 151.3783 00.07599231    06

# Worst residual: 4.50 km
# MJD 60798.000000 (2025 May  3  0:00)
2024-051C = NORAD 59278 = Tiandu-1
1 59278U 24051C   25123.49919926  .00000000  00000-0  00000-0 0 27120
2 59278 024.3298 337.0507 6028563 139.9515 178.2507 00.07593253    03

# Worst residual: 3.25 km
# MJD 60799.000000 (2025 May  4  0:00)
2024-051C = NORAD 59278 = Tiandu-1
1 59278U 24051C   25124.49919926  .00000000  00000-0  00000-0 0 27121
2 59278 024.3450 337.0090 6028628 140.0777 205.2813 00.07593325    06

# Worst residual: 4.27 km
# MJD 60800.000000 (2025 May  5  0:00)
2024-051C = NORAD 59278 = Tiandu-1
1 59278U 24051C   25125.49919926  .00000000  00000-0  00000-0 0 27122
2 59278 024.3588 336.9935 6030605 140.1850 232.3198 00.07596533    06

# Worst residual: 8.38 km
# MJD 60801.000000 (2025 May  6  0:00)
2024-051C = NORAD 59278 = Tiandu-1
1 59278U 24051C   25126.49919926  .00000000  00000-0  00000-0 0 27123
2 59278 024.3555 337.0146 6028985 140.2928 259.2699 00.07603780    08

# Worst residual: 20.12 km
# MJD 60802.000000 (2025 May  7  0:00)
2024-051C = NORAD 59278 = Tiandu-1
1 59278U 24051C   25127.49919926  .00000000  00000-0  00000-0 0 27124
2 59278 024.3274 337.0590 6017997 140.4257 286.0883 00.07623345    09

# Worst residual: 41.68 km
# MJD 60803.000000 (2025 May  8  0:00)
2024-051C = NORAD 59278 = Tiandu-1
1 59278U 24051C   25128.49919926  .00000000  00000-0  00000-0 0 27125
2 59278 024.2849 337.1031 5988228 140.6144 312.8278 00.07677931    03

# Worst residual: 61.65 km
# MJD 60804.000000 (2025 May  9  0:00)
2024-051C = NORAD 59278 = Tiandu-1
1 59278U 24051C   25129.49919926  .00000000  00000-0  00000-0 0 27126
2 59278 024.2412 337.1438 5909639 140.7157 339.8242 00.07826770    01
